{"type": "FeatureCollection", "features": [ {"type": "Feature", "properties": {"norad_id": 37528, "name": "COSMOS 2251 DEB", "group": "cosmos-2251-debris", "lat": -45.83002193464293, "lon": 105.4790985946652, "alt_km": 719.0817944084401, "timestamp": "2025-12-12T11:38:31.810429+00:00", "meta": {"OBJECT_NAME": "COSMOS 2251 DEB", "OBJECT_ID": "1993-036BNH", "EPOCH": "2025-12-11T16:00:02.560320", "MEAN_MOTION": 14.50514088, "ECCENTRICITY": 0.00210781, "INCLINATION": 74.0369, "RA_OF_ASC_NODE": 124.1531, "ARG_OF_PERICENTER": 272.3506, "MEAN_ANOMALY": 87.5241, "EPHEMERIS_TYPE": 0, "CLASSIFICATION_TYPE": "U", "NORAD_CAT_ID": 37528, "ELEMENT_SET_NO": 999, "REV_AT_EPOCH": 85915, "BSTAR": 0.00080165521, "MEAN_MOTION_DOT": 3.121e-05, "MEAN_MOTION_DDOT": 0}, "tle": {"line1": "1 37528U 93036BNH 25345.66669630  .00003121  00000+0  80166-3 0  9997", "line2": "2 37528  74.0369 124.1531 0021078 272.3506  87.5241 14.50514088859157"}}, "geometry": {"type": "Point", "coordinates": [105.4790985946652, -45.83002193464293]}}, {"type": "Feature", "properties": {"norad_id": 37530, "name": "COSMOS 2251 DEB", "group": "cosmos-2251-debris", "lat": -52.12224385400948, "lon": 175.70365474359704, "alt_km": 800.7217088223933, "timestamp": "2025-12-12T11:38:31.810439+00:00", "meta": {"OBJECT_NAME": "COSMOS 2251 DEB", "OBJECT_ID": "1993-036BNK", "EPOCH": "2025-12-10T08:38:54.155328", "MEAN_MOTION": 14.34498847, "ECCENTRICITY": 0.00257113, "INCLINATION": 74.0355, "RA_OF_ASC_NODE": 338.0003, "ARG_OF_PERICENTER": 40.6247, "MEAN_ANOMALY": 26.3966, "EPHEMERIS_TYPE": 0, "CLASSIFICATION_TYPE": "U", "NORAD_CAT_ID": 37530, "ELEMENT_SET_NO": 999, "REV_AT_EPOCH": 85198, "BSTAR": 0.00036135133, "MEAN_MOTION_DOT": 9.97e-06, "MEAN_MOTION_DDOT": 0}, "tle": {"line1": "1 37530U 93036BNK 25344.36034902  .00000997  00000+0  36135-3 0  9999", "line2": "2 37530  74.0355 338.0003 0025711  40.6247  26.3966 14.34498847851985"}}, "geometry": {"type": "Point", "coordinates": [175.70365474359704, -52.12224385400948]}}, {"type": "Feature", "properties": {"norad_id": 37532, "name": "COSMOS 2251 DEB", "group": "cosmos-2251-debris", "lat": 7.866077855796518, "lon": -141.54299077747456, "alt_km": 745.0194750208348, "timestamp": "2025-12-12T11:38:31.810449+00:00", "meta": {"OBJECT_NAME": "COSMOS 2251 DEB", "OBJECT_ID": "1993-036BNM", "EPOCH": "2025-12-11T09:48:08.550720", "MEAN_MOTION": 14.42404906, "ECCENTRICITY": 0.00159305, "INCLINATION": 74.0497, "RA_OF_ASC_NODE": 218.1872, "ARG_OF_PERICENTER": 319.0125, "MEAN_ANOMALY": 220.6834, "EPHEMERIS_TYPE": 0, "CLASSIFICATION_TYPE": "U", "NORAD_CAT_ID": 37532, "ELEMENT_SET_NO": 999, "REV_AT_EPOCH": 84896, "BSTAR": 0.00034566726, "MEAN_MOTION_DOT": 1.119e-05, "MEAN_MOTION_DDOT": 0}, "tle": {"line1": "1 37532U 93036BNM 25345.40843230  .00001119  00000+0  34567-3 0  9993", "line2": "2 37532  74.0497 218.1872 0015930 319.0125 220.6834 14.42404906848965"}}, "geometry": {"type": "Point", "coordinates": [-141.54299077747456, 7.866077855796518]}}, {"type": "Feature", "properties": {"norad_id": 37533, "name": "COSMOS 2251 DEB", "group": "cosmos-2251-debris", "lat": 50.88812181207062, "lon": -8.311692737992962, "alt_km": 907.5284956333944, "timestamp": "2025-12-12T11:38:31.810459+00:00", "meta": {"OBJECT_NAME": "COSMOS 2251 DEB", "OBJECT_ID": "1993-036BNN", "EPOCH": "2025-12-10T19:55:37.417152", "MEAN_MOTION": 14.12152288, "ECCENTRICITY": 0.01580439, "INCLINATION": 74.0697, "RA_OF_ASC_NODE": 195.1706, "ARG_OF_PERICENTER": 252.2523, "MEAN_ANOMALY": 106.1316, "EPHEMERIS_TYPE": 0, "CLASSIFICATION_TYPE": "U", "NORAD_CAT_ID": 37533, "ELEMENT_SET_NO": 999, "REV_AT_EPOCH": 62894, "BSTAR": 0.0019185157, "MEAN_MOTION_DOT": 3.939e-05, "MEAN_MOTION_DDOT": 0}, "tle": {"line1": "1 37533U 93036BNN 25344.83029418  .00003939  00000+0  19185-2 0  9994", "line2": "2 37533  74.0697 195.1706 0158043 252.2523 106.1316 14.12152288628948"}}, "geometry": {"type": "Point", "coordinates": [-8.311692737992962, 50.88812181207062]}}, {"type": "Feature", "properties": {"norad_id": 37535, "name": "COSMOS 2251 DEB", "group": "cosmos-2251-debris", "lat": 6.906804739478884, "lon": 75.97390607313177, "alt_km": 717.6313390358946, "timestamp": "2025-12-12T11:38:31.810469+00:00", "meta": {"OBJECT_NAME": "COSMOS 2251 DEB", "OBJECT_ID": "1993-036BNQ", "EPOCH": "2025-12-11T22:58:54.277824", "MEAN_MOTION": 14.58448247, "ECCENTRICITY": 0.0027855, "INCLINATION": 74.0237, "RA_OF_ASC_NODE": 74.9896, "ARG_OF_PERICENTER": 214.018, "MEAN_ANOMALY": 264.5877, "EPHEMERIS_TYPE": 0, "CLASSIFICATION_TYPE": "U", "NORAD_CAT_ID": 37535, "ELEMENT_SET_NO": 999, "REV_AT_EPOCH": 85313, "BSTAR": 0.0012946, "MEAN_MOTION_DOT": 6.014e-05, "MEAN_MOTION_DDOT": 0}, "tle": {"line1": "1 37535U 93036BNQ 25345.95757266  .00006014  00000+0  12946-2 0  9994", "line2": "2 37535  74.0237  74.9896 0027855 214.0180 264.5877 14.58448247853130"}}, "geometry": {"type": "Point", "coordinates": [75.97390607313177, 6.906804739478884]}}, {"type": "Feature", "properties": {"norad_id": 37537, "name": "COSMOS 2251 DEB", "group": "cosmos-2251-debris", "lat": -35.75548173583888, "lon": 97.50949715466028, "alt_km": 808.2101614449693, "timestamp": "2025-12-12T11:38:31.810480+00:00", "meta": {"OBJECT_NAME": "COSMOS 2251 DEB", "OBJECT_ID": "1993-036BNS", "EPOCH": "2025-12-11T11:15:11.696832", "MEAN_MOTION": 14.37489039, "ECCENTRICITY": 0.00502138, "INCLINATION": 74.0122, "RA_OF_ASC_NODE": 267.468, "ARG_OF_PERICENTER": 48.0201, "MEAN_ANOMALY": 312.5213, "EPHEMERIS_TYPE": 0, "CLASSIFICATION_TYPE": "U", "NORAD_CAT_ID": 37537, "ELEMENT_SET_NO": 999, "REV_AT_EPOCH": 85015, "BSTAR": 0.0003879169, "MEAN_MOTION_DOT": 1.152e-05, "MEAN_MOTION_DDOT": 0}, "tle": {"line1": "1 37537U 93036BNS 25345.46888538  .00001152  00000+0  38792-3 0  9995", "line2": "2 37537  74.0122 267.4680 0050213  48.0201 312.5213 14.37489039850156"}}, "geometry": {"type": "Point", "coordinates": [97.50949715466028, -35.75548173583888]}}, {"type": "Feature", "properties": {"norad_id": 37546, "name": "COSMOS 2251 DEB", "group": "cosmos-2251-debris", "lat": -69.08290819391785, "lon": -32.9248504911472, "alt_km": 637.9460877026859, "timestamp": "2025-12-12T11:38:31.810490+00:00", "meta": {"OBJECT_NAME": "COSMOS 2251 DEB", "OBJECT_ID": "1993-036BPB", "EPOCH": "2025-12-10T14:41:58.458624", "MEAN_MOTION": 14.80377439, "ECCENTRICITY": 0.0005891, "INCLINATION": 74.0204, "RA_OF_ASC_NODE": 102.2005, "ARG_OF_PERICENTER": 116.7302, "MEAN_ANOMALY": 243.4478, "EPHEMERIS_TYPE": 0, "CLASSIFICATION_TYPE": "U", "NORAD_CAT_ID": 37546, "ELEMENT_SET_NO": 999, "REV_AT_EPOCH": 65856, "BSTAR": 0.0047609, "MEAN_MOTION_DOT": 0.00036522, "MEAN_MOTION_DDOT": 0}, "tle": {"line1": "1 37546U 93036BPB 25344.61248216  .00036522  00000+0  47609-2 0  9999", "line2": "2 37546  74.0204 102.2005 0005891 116.7302 243.4478 14.80377439658565"}}, "geometry": {"type": "Point", "coordinates": [-32.9248504911472, -69.08290819391785]}}, {"type": "Feature", "properties": {"norad_id": 37959, "name": "COSMOS 2251 DEB", "group": "cosmos-2251-debris", "lat": 64.43996903225198, "lon": -159.4073379027775, "alt_km": 692.3350950570057, "timestamp": "2025-12-12T11:38:31.810499+00:00", "meta": {"OBJECT_NAME": "COSMOS 2251 DEB", "OBJECT_ID": "1993-036BPJ", "EPOCH": "2025-12-11T16:04:39.054144", "MEAN_MOTION": 14.58134361, "ECCENTRICITY": 0.00579142, "INCLINATION": 74.0105, "RA_OF_ASC_NODE": 58.9822, "ARG_OF_PERICENTER": 201.9689, "MEAN_ANOMALY": 311.4152, "EPHEMERIS_TYPE": 0, "CLASSIFICATION_TYPE": "U", "NORAD_CAT_ID": 37959, "ELEMENT_SET_NO": 999, "REV_AT_EPOCH": 80111, "BSTAR": 0.0011590963, "MEAN_MOTION_DOT": 5.439e-05, "MEAN_MOTION_DDOT": 0}, "tle": {"line1": "1 37959U 93036BPJ 25345.66989646  .00005439  00000+0  11591-2 0  9996", "line2": "2 37959  74.0105  58.9822 0057914 201.9689 311.4152 14.58134361801111"}}, "geometry": {"type": "Point", "coordinates": [-159.4073379027775, 64.43996903225198]}}, {"type": "Feature", "properties": {"norad_id": 37960, "name": "COSMOS 2251 DEB", "group": "cosmos-2251-debris", "lat": 15.768862398618403, "lon": -168.0310487427226, "alt_km": 1044.7215048250519, "timestamp": "2025-12-12T11:38:31.810509+00:00", "meta": {"OBJECT_NAME": "COSMOS 2251 DEB", "OBJECT_ID": "1993-036BPK", "EPOCH": "2025-12-11T06:34:06.593952", "MEAN_MOTION": 14.07849479, "ECCENTRICITY": 0.0248856, "INCLINATION": 74.0568, "RA_OF_ASC_NODE": 189.4616, "ARG_OF_PERICENTER": 208.4906, "MEAN_ANOMALY": 150.2444, "EPHEMERIS_TYPE": 0, "CLASSIFICATION_TYPE": "U", "NORAD_CAT_ID": 37960, "ELEMENT_SET_NO": 999, "REV_AT_EPOCH": 77385, "BSTAR": 0.0011921558, "MEAN_MOTION_DOT": 2.659e-05, "MEAN_MOTION_DDOT": 0}, "tle": {"line1": "1 37960U 93036BPK 25345.27368743  .00002659  00000+0  11922-2 0  9993", "line2": "2 37960  74.0568 189.4616 0248856 208.4906 150.2444 14.07849479773857"}}, "geometry": {"type": "Point", "coordinates": [-168.0310487427226, 15.768862398618403]}}, {"type": "Feature", "properties": {"norad_id": 37961, "name": "COSMOS 2251 DEB", "group": "cosmos-2251-debris", "lat": 4.743012908570838, "lon": -43.768548457212496, "alt_km": 680.7211266740542, "timestamp": "2025-12-12T11:38:31.810519+00:00", "meta": {"OBJECT_NAME": "COSMOS 2251 DEB", "OBJECT_ID": "1993-036BPL", "EPOCH": "2025-12-11T10:08:14.598816", "MEAN_MOTION": 14.5795188, "ECCENTRICITY": 0.00408006, "INCLINATION": 74.0412, "RA_OF_ASC_NODE": 139.6117, "ARG_OF_PERICENTER": 220.729, "MEAN_ANOMALY": 139.0823, "EPHEMERIS_TYPE": 0, "CLASSIFICATION_TYPE": "U", "NORAD_CAT_ID": 37961, "ELEMENT_SET_NO": 999, "REV_AT_EPOCH": 80046, "BSTAR": 0.0020723036, "MEAN_MOTION_DOT": 9.604e-05, "MEAN_MOTION_DDOT": 0}, "tle": {"line1": "1 37961U 93036BPL 25345.42239119  .00009604  00000+0  20723-2 0  9991", "line2": "2 37961  74.0412 139.6117 0040800 220.7290 139.0823 14.57951880800460"}}, "geometry": {"type": "Point", "coordinates": [-43.768548457212496, 4.743012908570838]}}]}